BEIDOU-2 IGSO-1 (C06)   
1 36828U 10036A   25289.64048374 -.00000118  00000+0  00000+0 0  9998
2 36828  54.2760 165.1659 0050881 216.8308 339.6405  1.00292846 55659
BEIDOU-2 G4 (C04)       
1 37210U 10057A   25289.63491949 -.00000122  00000+0  00000+0 0  9991
2 37210   3.0398  70.1029 0009694 177.2635 166.5748  1.00270394 54840
BEIDOU-2 IGSO-2 (C07)   
1 37256U 10068A   25289.67121954 -.00000194  00000+0  00000+0 0  9992
2 37256  47.9876 274.8480 0047628 217.3128 239.5324  1.00249972 54359
BEIDOU-2 IGSO-3 (C08)   
1 37384U 11013A   25289.20662088 -.00000191  00000+0  00000+0 0  9999
2 37384  62.0686  42.4650 0036317 182.1795 342.0127  1.00284755 53211
BEIDOU-2 IGSO-4 (C09)   
1 37763U 11038A   25289.15694814 -.00000066  00000+0  00000+0 0  9994
2 37763  54.5781 167.8685 0145373 230.5754 134.5243  1.00254368 52208
BEIDOU-2 IGSO-5 (C10)   
1 37948U 11073A   25289.66676236 -.00000188  00000+0  00000+0 0  9997
2 37948  48.1261 274.5567 0109547 221.9121 223.4853  1.00259380 50690
BEIDOU-2 G5 (C05)       
1 38091U 12008A   25289.63883311  .00000047  00000+0  00000+0 0  9990
2 38091   2.9638  70.8881 0009312 220.3214  22.9404  1.00268305 49922
BEIDOU-2 M3 (C11)       
1 38250U 12018A   25289.40970241 -.00000052  00000+0  00000+0 0  9999
2 38250  55.9671 313.0849 0024656 269.0489  90.7150  1.86229812 91407
BEIDOU-2 M4 (C12)       
1 38251U 12018B   25289.34203701 -.00000051  00000+0  00000+0 0  9992
2 38251  55.8694 312.3210 0015785 269.6195  90.2452  1.86232118 91402
BEIDOU-2 M6 (C14)       
1 38775U 12050B   25289.58987372 -.00000007  00000+0  00000+0 0  9999
2 38775  56.3298  70.9625 0010551 354.8694   5.1152  1.86230892 88778
BEIDOU-2 G6 (C02)       
1 38953U 12059A   25289.57244612 -.00000185  00000+0  00000+0 0  9995
2 38953   3.8004  76.0611 0006245 301.9826 297.4613  1.00272717 47462
BEIDOU-3S IGSO-1S (C31) 
1 40549U 15019A   25289.50250579 -.00000134  00000+0  00000+0 0  9994
2 40549  49.6592 298.3972 0040757 197.1619 161.0535  1.00252498 38627
BEIDOU-3S M2S (C58)     
1 40748U 15037A   25284.17720052 -.00000045  00000+0  00000+0 0  9992
2 40748  55.0922 310.6117 0012865 258.1042 101.7933  1.86229079 69486
BEIDOU-3S M1S (C57)     
1 40749U 15037B   25288.17388407 -.00000047  00000+0  00000+0 0  9993
2 40749  55.0854 310.4645 0002674 351.7370   8.3010  1.86253891 69562
BEIDOU-3S IGSO-2S (C56) 
1 40938U 15053A   25288.83287447 -.00000143  00000+0  00000+0 0  9993
2 40938  49.6050 261.6889 0061801 189.5975 328.6601  1.00283488 36908
BEIDOU-2 IGSO-6 (C13)   
1 41434U 16021A   25289.28878132 -.00000163  00000+0  00000+0 0  9990
2 41434  59.8878  40.4741 0057777 228.8921 314.2391  1.00264827 35032
BEIDOU-2 G7 (C03)       
1 41586U 16037A   25289.68450554 -.00000364  00000+0  00000+0 0  9996
2 41586   1.6150  67.0070 0005572 340.2558 335.1526  1.00274954  4444
BEIDOU-3 M1 (C19)       
1 43001U 17069A   25289.35540848 -.00000004  00000+0  00000+0 0  9997
2 43001  56.4787  71.1289 0007230 311.0595  48.8743  1.86231142 54068
BEIDOU-3 M2 (C20)       
1 43002U 17069B   25289.29367682 -.00000004  00000+0  00000+0 0  9994
2 43002  56.4772  71.1674 0005470 349.4794  10.5056  1.86230776 54055
BEIDOU-3 M7 (C27)       
1 43107U 18003A   25289.03757740 -.00000052  00000+0  00000+0 0  9992
2 43107  54.5462 310.8215 0002326  90.2780 269.7913  1.86232486 52804
BEIDOU-3 M8 (C28)       
1 43108U 18003B   25287.90810558 -.00000049  00000+0  00000+0 0  9990
2 43108  54.5403 310.8439 0004975 262.0853  97.9001  1.86230912 52799
BEIDOU-3 M4 (C22)       
1 43207U 18018A   25288.88669005 -.00000002  00000+0  00000+0 0  9992
2 43207  56.4373  71.2168 0004894  36.6641 323.3668  1.86231029 52192
BEIDOU-3 M3 (C21)       
1 43208U 18018B   25288.41630302  .00000001  00000+0  00000+0 0  9998
2 43208  56.4361  71.2364 0005098 332.6205  27.3509  1.86231123 52189
BEIDOU-3 M9 (C29)       
1 43245U 18029A   25289.16940374 -.00000049  00000+0  00000+0 0  9990
2 43245  54.4162 308.4750 0002158 248.5317 111.4851  1.86232699 51356
BEIDOU-3 M10 (C30)      
1 43246U 18029B   25289.10440604 -.00000049  00000+0  00000+0 0  9996
2 43246  54.4140 308.5052 0003050 354.7232   5.3135  1.86229107 51331
BEIDOU-2 IGSO-7 (C16)   
1 43539U 18057A   25288.62008171 -.00000135  00000+0  00000+0 0  9993
2 43539  55.1677 165.1814 0091910 235.9552 319.0447  1.00274750 26679
BEIDOU-3 M5 (C23)       
1 43581U 18062A   25280.20091477  .00000030  00000+0  00000+0 0  9996
2 43581  54.0922 190.9072 0003398 310.1276  49.8853  1.86228524 48924
BEIDOU-3 M6 (C24)       
1 43582U 18062B   25288.11867049 -.00000040  00000+0  00000+0 0  9993
2 43582  54.0908 190.6268 0006633  32.2708 327.8130  1.86229764 49071
BEIDOU-3 M12 (C26)      
1 43602U 18067A   25288.59280122 -.00000039  00000+0  00000+0 0  9992
2 43602  54.1847 189.3365 0008654  34.9959 325.1062  1.86227579 48562
BEIDOU-3 M11 (C25)      
1 43603U 18067B   25288.72715850 -.00000039  00000+0  00000+0 0  9999
2 43603  54.1821 189.2961 0005135  26.5490 333.5228  1.86227124 48590
BEIDOU-3 M13 (C32)      
1 43622U 18072A   25281.70343855 -.00000001  00000+0  00000+0 0  9998
2 43622  56.6124  70.9597 0015990 272.2089  87.6036  1.86276138 47973
BEIDOU-3 M14 (C33)      
1 43623U 18072B   25287.47581111  .00000001  00000+0  00000+0 0  9997
2 43623  56.4103  70.7754 0002807  12.1761 347.8291  1.86230741 48079
BEIDOU-3 M16 (C35)      
1 43647U 18078A   25289.24530726 -.00000050  00000+0  00000+0 0  9997
2 43647  54.3127 308.5311 0006061  18.4541 341.6077  1.86232290 47614
BEIDOU-3 M15 (C34)      
1 43648U 18078B   25288.83754750 -.00000049  00000+0  00000+0 0  9995
2 43648  54.3083 308.5464 0002643  18.4001 341.6493  1.86232239 47624
BEIDOU-3 G1 (C59)       
1 43683U 18085A   25289.65495319 -.00000286  00000+0  00000+0 0  9999
2 43683   2.9619 104.2210 0002993  14.9579 282.1183  1.00270296 25617
BEIDOU-3 M17 (C36)      
1 43706U 18093A   25289.52961554 -.00000036  00000+0  00000+0 0  9992
2 43706  54.1745 190.5640 0007861 299.8232  58.5317  1.86228260 46992
BEIDOU-3 M18 (C37)      
1 43707U 18093B   25289.39336657 -.00000037  00000+0  00000+0 0  9999
2 43707  54.1752 190.5603 0007060 336.4134  23.5984  1.86229978 46999
BEIDOU-3 IGSO-1 (C38)   
1 44204U 19023A   25289.22213435 -.00000225  00000+0  00000+0 0  9995
2 44204  58.3549  40.1714 0026155 218.3477 324.2402  1.00261696  4763
BEIDOU-2 G8 (C01)       
1 44231U 19027A   25289.65581986 -.00000258  00000+0  00000+0 0  9991
2 44231   1.5144  74.4733 0007194 255.9962  75.5933  1.00269954 23630
BEIDOU-3 IGSO-2 (C39)   
1 44337U 19035A   25289.59709209 -.00000123  00000+0  00000+0 0  9991
2 44337  55.2144 161.0051 0037143 202.9395 354.5708  1.00289124 23224
BEIDOU-3 M24 (C46)      
1 44542U 19061A   25279.26270484  .00000023  00000+0  00000+0 0  9997
2 44542  54.4036 191.2933 0009011  10.1370 349.9168  1.86229365 41067
BEIDOU-3 M23 (C45)      
1 44543U 19061B   25281.30105446  .00000034  00000+0  00000+0 0  9993
2 44543  54.4016 191.1929 0005718   0.3063 199.1630  1.86229353 41101
BEIDOU-3 IGSO-3 (C40)   
1 44709U 19073A   25288.39207229 -.00000171  00000+0  00000+0 0  9991
2 44709  55.2240 283.5447 0045211 192.0968 167.7754  1.00261398 22006
BEIDOU-3 M22 (C44)      
1 44793U 19078A   25288.76870263 -.00000049  00000+0  00000+0 0  9998
2 44793  54.1592 308.4201 0004699  24.0402 336.0213  1.86232087 40091
BEIDOU-3 M21 (C43)      
1 44794U 19078B   25288.90504226 -.00000049  00000+0  00000+0 0  9998
2 44794  54.1329 308.3815 0002946   8.3666 351.6778  1.86227729 40108
BEIDOU-3 M19 (C41)      
1 44864U 19090A   25286.99727030  .00000001  00000+0  00000+0 0  9994
2 44864  56.3424  70.9414 0015744 285.9438  70.2655  1.86231297 39643
BEIDOU-3 M20 (C42)      
1 44865U 19090B   25289.27705067 -.00000005  00000+0  00000+0 0  9990
2 44865  56.3463  70.8997 0013111 300.6322 233.6709  1.86231397 39674
BEIDOU-3 G2 (C60)       
1 45344U 20017A   25289.64299314 -.00000151  00000+0  00000+0 0  9990
2 45344   2.8927  42.6813 0002672 258.2368  36.0130  1.00272194 20815
BEIDOU-3 G3 (C61)       
1 45807U 20040A   25289.68450558 -.00000364  00000+0  00000+0 0  9999
2 45807   1.8501  65.9677 0004186 304.3522  12.1056  1.00267644 19622
BEIDOU-3 G4 (C62)       
1 56564U 23066A   25289.58752619 -.00000126  00000+0  00000+0 0  9990
2 56564   0.9450 297.9077 0004821 221.1772 237.7108  1.00273413  8955
BEIDOU-3 M28 (C50)      
1 58654U 23207A   25289.52058980 -.00000009  00000+0  00000+0 0  9993
2 58654  55.5348  70.5373 0000324 214.5843 145.4096  1.86229756 12302
BEIDOU-3 M26 (C48)      
1 58655U 23207B   25288.78175569 -.00000005  00000+0  00000+0 0  9990
2 58655  55.5362  70.5486 0001866 228.3629 131.6188  1.86231329 12275
BEIDOU-3 M25 (C47)      
1 61186U 24168B   25289.13864008 -.00000052  00000+0  00000+0 0  9995
2 61186  54.6913 310.7156 0005317 283.4807  72.8774  1.86230080  7238
BEIDOU-3 M27 (C49)      
1 61187U 24168C   25289.64103322 -.00000054  00000+0  00000+0 0  9999
2 61187  54.6863 310.6821 0001638 308.6462 159.4548  1.86230208  4724
